{
  "type": "FeatureCollection",
  "features": [
    {
      "type": "Feature",
      "properties": {
        "norad_id": 67067,
        "name": "HULIANWANG DIGUI-127",
        "group": "last-30-days",
        "lat": 49.64539837159419,
        "lon": 35.97202910491919,
        "alt_km": 803.5097949578931,
        "timestamp": "2025-12-26T07:29:17.196345+00:00",
        "meta_object_name": "HULIANWANG DIGUI-127",
        "meta_object_id": "2025-295J",
        "meta_epoch": "2025-12-22T15:39:07.411968",
        "meta_mean_motion": 14.26251195,
        "meta_eccentricity": 0.00108509,
        "meta_inclination": 50.0053,
        "meta_ra_of_asc_node": 330.3407,
        "meta_arg_of_pericenter": 289.3117,
        "meta_mean_anomaly": 70.6623,
        "meta_ephemeris_type": 0,
        "meta_classification_type": "U",
        "meta_norad_cat_id": 67067,
        "meta_element_set_no": 999,
        "meta_rev_at_epoch": 153,
        "meta_bstar": -0.00027534515,
        "meta_mean_motion_dot": -8.25e-06,
        "meta_mean_motion_ddot": 0,
        "tle_line1": "1 67067U 25295J   25356.65216912 -.00000825  00000+0 -27535-3 0  9993",
        "tle_line2": "2 67067  50.0053 330.3407 0010850 289.3117  70.6623 14.26251195  1535"
      },
      "geometry": {
        "type": "Point",
        "coordinates": [
          35.97202910491919,
          49.64539837159419
        ]
      }
    },
    {
      "type": "Feature",
      "properties": {
        "norad_id": 67068,
        "name": "CZ-12 R/B",
        "group": "last-30-days",
        "lat": 36.09634794945928,
        "lon": 95.67465366571898,
        "alt_km": 726.3476276421788,
        "timestamp": "2025-12-26T07:29:17.196355+00:00",
        "meta_object_name": "CZ-12 R/B",
        "meta_object_id": "2025-295K",
        "meta_epoch": "2025-12-25T05:55:24.816864",
        "meta_mean_motion": 14.41130003,
        "meta_eccentricity": 0.0056889,
        "meta_inclination": 49.9942,
        "meta_ra_of_asc_node": 318.0473,
        "meta_arg_of_pericenter": 180.7445,
        "meta_mean_anomaly": 179.3399,
        "meta_ephemeris_type": 0,
        "meta_classification_type": "U",
        "meta_norad_cat_id": 67068,
        "meta_element_set_no": 999,
        "meta_rev_at_epoch": 191,
        "meta_bstar": 3.183e-05,
        "meta_mean_motion_dot": -6.3e-07,
        "meta_mean_motion_ddot": 0,
        "tle_line1": "1 67068U 25295K   25359.24681501 -.00000063  00000+0  31830-4 0  9999",
        "tle_line2": "2 67068  49.9942 318.0473 0056889 180.7445 179.3399 14.41130003  1916"
      },
      "geometry": {
        "type": "Point",
        "coordinates": [
          95.67465366571898,
          36.09634794945928
        ]
      }
    },
    {
      "type": "Feature",
      "properties": {
        "norad_id": 67069,
        "name": "XIWANG-5 02",
        "group": "last-30-days",
        "lat": -39.21037094794359,
        "lon": -87.77938621049812,
        "alt_km": 524.6269420175722,
        "timestamp": "2025-12-26T07:29:17.196367+00:00",
        "meta_object_name": "XIWANG-5 02",
        "meta_object_id": "2025-296A",
        "meta_epoch": "2025-12-23T12:00:44.103744",
        "meta_mean_motion": 15.16891516,
        "meta_eccentricity": 0.00145566,
        "meta_inclination": 41.3523,
        "meta_ra_of_asc_node": 40.1941,
        "meta_arg_of_pericenter": 102.8792,
        "meta_mean_anomaly": 257.3656,
        "meta_ephemeris_type": 0,
        "meta_classification_type": "U",
        "meta_norad_cat_id": 67069,
        "meta_element_set_no": 999,
        "meta_rev_at_epoch": 159,
        "meta_bstar": 0.00060249038,
        "meta_mean_motion_dot": 0.00011945,
        "meta_mean_motion_ddot": 0,
        "tle_line1": "1 67069U 25296A   25357.50051046  .00011945  00000+0  60249-3 0  9998",
        "tle_line2": "2 67069  41.3523  40.1941 0014556 102.8792 257.3656 15.16891516  1599"
      },
      "geometry": {
        "type": "Point",
        "coordinates": [
          -87.77938621049812,
          -39.21037094794359
        ]
      }
    },
    {
      "type": "Feature",
      "properties": {
        "norad_id": 67070,
        "name": "DEAR-5",
        "group": "last-30-days",
        "lat": -40.24189413005335,
        "lon": -81.67074059943943,
        "alt_km": 525.8932046673981,
        "timestamp": "2025-12-26T07:29:17.196381+00:00",
        "meta_object_name": "DEAR-5",
        "meta_object_id": "2025-296B",
        "meta_epoch": "2025-12-23T23:03:08.623008",
        "meta_mean_motion": 15.16917161,
        "meta_eccentricity": 0.0016166,
        "meta_inclination": 41.3551,
        "meta_ra_of_asc_node": 37.5614,
        "meta_arg_of_pericenter": 107.8349,
        "meta_mean_anomaly": 252.4237,
        "meta_ephemeris_type": 0,
        "meta_classification_type": "U",
        "meta_norad_cat_id": 67070,
        "meta_element_set_no": 999,
        "meta_rev_at_epoch": 165,
        "meta_bstar": 0.0002755,
        "meta_mean_motion_dot": 5.352e-05,
        "meta_mean_motion_ddot": 0,
        "tle_line1": "1 67070U 25296B   25357.96051647  .00005352  00000+0  27550-3 0  9990",
        "tle_line2": "2 67070  41.3551  37.5614 0016166 107.8349 252.4237 15.16917161  1654"
      },
      "geometry": {
        "type": "Point",
        "coordinates": [
          -81.67074059943943,
          -40.24189413005335
        ]
      }
    },
    {
      "type": "Feature",
      "properties": {
        "norad_id": 67071,
        "name": "KZ-11 R/B",
        "group": "last-30-days",
        "lat": -35.425765571311885,
        "lon": -101.54929172124507,
        "alt_km": 345.65403138003603,
        "timestamp": "2025-12-26T07:29:17.196391+00:00",
        "meta_object_name": "KZ-11 R/B",
        "meta_object_id": "2025-296C",
        "meta_epoch": "2025-12-24T07:54:11.602080",
        "meta_mean_motion": 15.73894626,
        "meta_eccentricity": 0.03315074,
        "meta_inclination": 41.3001,
        "meta_ra_of_asc_node": 37.0775,
        "meta_arg_of_pericenter": 35.4688,
        "meta_mean_anomaly": 326.7718,
        "meta_ephemeris_type": 0,
        "meta_classification_type": "U",
        "meta_norad_cat_id": 67071,
        "meta_element_set_no": 999,
        "meta_rev_at_epoch": 169,
        "meta_bstar": 0.00038975112,
        "meta_mean_motion_dot": 0.10609436,
        "meta_mean_motion_ddot": 7.766669e-06,
        "tle_line1": "1 67071U 25296C   25358.32930095  .10609436  77667-5  38975-3 0  9991",
        "tle_line2": "2 67071  41.3001  37.0775 0331507  35.4688 326.7718 15.73894626  1695"
      },
      "geometry": {
        "type": "Point",
        "coordinates": [
          -101.54929172124507,
          -35.425765571311885
        ]
      }
    },
    {
      "type": "Feature",
      "properties": {
        "norad_id": 67073,
        "name": "RAISE-4",
        "group": "last-30-days",
        "lat": 15.08387697113844,
        "lon": 145.4641982616804,
        "alt_km": 547.6639720226003,
        "timestamp": "2025-12-26T07:29:17.196401+00:00",
        "meta_object_name": "RAISE-4",
        "meta_object_id": "2025-297B",
        "meta_epoch": "2025-12-25T21:51:39.079008",
        "meta_mean_motion": 15.07237028,
        "meta_eccentricity": 0.001165,
        "meta_inclination": 97.4853,
        "meta_ra_of_asc_node": 147.1048,
        "meta_arg_of_pericenter": 271.3968,
        "meta_mean_anomaly": 88.5925,
        "meta_ephemeris_type": 0,
        "meta_classification_type": "U",
        "meta_norad_cat_id": 67073,
        "meta_element_set_no": 999,
        "meta_rev_at_epoch": 177,
        "meta_bstar": 0.00035355175,
        "meta_mean_motion_dot": 5.275e-05,
        "meta_mean_motion_ddot": 0,
        "tle_line1": "1 67073U 25297B   25359.91086897  .00005275  00000+0  35355-3 0  9992",
        "tle_line2": "2 67073  97.4853 147.1048 0011650 271.3968  88.5925 15.07237028  1772"
      },
      "geometry": {
        "type": "Point",
        "coordinates": [
          145.4641982616804,
          15.08387697113844
        ]
      }
    },
    {
      "type": "Feature",
      "properties": {
        "norad_id": 67074,
        "name": "ELECTRON KICK STAGE R/B",
        "group": "last-30-days",
        "lat": 20.131090690186145,
        "lon": 145.67544122408484,
        "alt_km": 505.15912208980717,
        "timestamp": "2025-12-26T07:29:17.196411+00:00",
        "meta_object_name": "ELECTRON KICK STAGE R/B",
        "meta_object_id": "2025-297C",
        "meta_epoch": "2025-12-25T22:09:51.202656",
        "meta_mean_motion": 15.60332777,
        "meta_eccentricity": 0.01883309,
        "meta_inclination": 97.4815,
        "meta_ra_of_asc_node": 148.0268,
        "meta_arg_of_pericenter": 221.686,
        "meta_mean_anomaly": 136.9917,
        "meta_ephemeris_type": 0,
        "meta_classification_type": "U",
        "meta_norad_cat_id": 67074,
        "meta_element_set_no": 999,
        "meta_rev_at_epoch": 183,
        "meta_bstar": 0.0017867949,
        "meta_mean_motion_dot": 0.0035668,
        "meta_mean_motion_ddot": 3.6798376e-05,
        "tle_line1": "1 67074U 25297C   25359.92350929  .00356680  36798-4  17868-2 0  9999",
        "tle_line2": "2 67074  97.4815 148.0268 0188330 221.6860 136.9917 15.60332777  1836"
      },
      "geometry": {
        "type": "Point",
        "coordinates": [
          145.67544122408484,
          20.131090690186145
        ]
      }
    }
  ]
}